[{"OBJECT_NAME":"STARLINK-32456","OBJECT_ID":"2024-216K","EPOCH":"2026-03-09T21:24:16.987392","MEAN_MOTION":15.27578482,"ECCENTRICITY":0.00014749,"INCLINATION":43.0023,"RA_OF_ASC_NODE":255.4346,"ARG_OF_PERICENTER":293.7724,"MEAN_ANOMALY":66.2973,"EPHEMERIS_TYPE":0,"CLASSIFICATION_TYPE":"U","NORAD_CAT_ID":62041,"ELEMENT_SET_NO":999,"REV_AT_EPOCH":7390,"BSTAR":0.00093050785,"MEAN_MOTION_DOT":0.00025431,"MEAN_MOTION_DDOT":0},{"OBJECT_NAME":"KUIPER-00204","OBJECT_ID":"2025-301N","EPOCH":"2026-03-09T09:32:32.981280","MEAN_MOTION":15.260884,"ECCENTRICITY":0.00030716,"INCLINATION":51.887,"RA_OF_ASC_NODE":71.6415,"ARG_OF_PERICENTER":354.8934,"MEAN_ANOMALY":5.2016,"EPHEMERIS_TYPE":0,"CLASSIFICATION_TYPE":"U","NORAD_CAT_ID":67145,"ELEMENT_SET_NO":999,"REV_AT_EPOCH":1373,"BSTAR":0.00079568218,"MEAN_MOTION_DOT":0.00020516,"MEAN_MOTION_DDOT":0}]
